[{"OBJECT_NAME":"STARLINK-34642","OBJECT_ID":"2025-157G","EPOCH":"2025-12-30T06:20:20.795712","MEAN_MOTION":15.39620932,"ECCENTRICITY":0.00011929,"INCLINATION":53.1612,"RA_OF_ASC_NODE":311.0441,"ARG_OF_PERICENTER":66.255,"MEAN_ANOMALY":293.858,"EPHEMERIS_TYPE":0,"CLASSIFICATION_TYPE":"U","NORAD_CAT_ID":64910,"ELEMENT_SET_NO":999,"REV_AT_EPOCH":2545,"BSTAR":0.0019055654,"MEAN_MOTION_DOT":0.00076593,"MEAN_MOTION_DDOT":0},{"OBJECT_NAME":"STARLINK-34718","OBJECT_ID":"2025-157H","EPOCH":"2025-12-30T03:00:01.310688","MEAN_MOTION":15.39665691,"ECCENTRICITY":0.00012453,"INCLINATION":53.1605,"RA_OF_ASC_NODE":311.5976,"ARG_OF_PERICENTER":134.7264,"MEAN_ANOMALY":225.3842,"EPHEMERIS_TYPE":0,"CLASSIFICATION_TYPE":"U","NORAD_CAT_ID":64911,"ELEMENT_SET_NO":999,"REV_AT_EPOCH":2543,"BSTAR":0.001778636,"MEAN_MOTION_DOT":0.00071522,"MEAN_MOTION_DDOT":0},{"OBJECT_NAME":"STARLINK-34711","OBJECT_ID":"2025-157J","EPOCH":"2025-12-30T06:00:17.138304","MEAN_MOTION":15.39646727,"ECCENTRICITY":8.574e-5,"INCLINATION":53.1605,"RA_OF_ASC_NODE":310.9556,"ARG_OF_PERICENTER":170.1954,"MEAN_ANOMALY":189.9068,"EPHEMERIS_TYPE":0,"CLASSIFICATION_TYPE":"U","NORAD_CAT_ID":64912,"ELEMENT_SET_NO":999,"REV_AT_EPOCH":2545,"BSTAR":0.0014658971,"MEAN_MOTION_DOT":0.0005874,"MEAN_MOTION_DDOT":0},{"OBJECT_NAME":"STARLINK-34659","OBJECT_ID":"2025-157K","EPOCH":"2025-12-30T05:46:38.846496","MEAN_MOTION":15.42888053,"ECCENTRICITY":0.00294541,"INCLINATION":53.1598,"RA_OF_ASC_NODE":310.8976,"ARG_OF_PERICENTER":9.6125,"MEAN_ANOMALY":350.5439,"EPHEMERIS_TYPE":0,"CLASSIFICATION_TYPE":"U","NORAD_CAT_ID":64913,"ELEMENT_SET_NO":999,"REV_AT_EPOCH":2540,"BSTAR":0.11029315,"MEAN_MOTION_DOT":0.05751333,"MEAN_MOTION_DDOT":0},{"OBJECT_NAME":"STARLINK-34571","OBJECT_ID":"2025-157L","EPOCH":"2025-12-30T07:07:01.056864","MEAN_MOTION":15.39620272,"ECCENTRICITY":0.00012053,"INCLINATION":53.1605,"RA_OF_ASC_NODE":310.5327,"ARG_OF_PERICENTER":122.6921,"MEAN_ANOMALY":237.42,"EPHEMERIS_TYPE":0,"CLASSIFICATION_TYPE":"U","NORAD_CAT_ID":64914,"ELEMENT_SET_NO":999,"REV_AT_EPOCH":2541,"BSTAR":0.001492604,"MEAN_MOTION_DOT":0.00059773,"MEAN_MOTION_DDOT":0},{"OBJECT_NAME":"STARLINK-34636","OBJECT_ID":"2025-157M","EPOCH":"2025-12-30T03:46:41.279808","MEAN_MOTION":15.39593606,"ECCENTRICITY":8.832e-5,"INCLINATION":53.1588,"RA_OF_ASC_NODE":311.0854,"ARG_OF_PERICENTER":112.9026,"MEAN_ANOMALY":247.2072,"EPHEMERIS_TYPE":0,"CLASSIFICATION_TYPE":"U","NORAD_CAT_ID":64915,"ELEMENT_SET_NO":999,"REV_AT_EPOCH":2544,"BSTAR":0.0014199099,"MEAN_MOTION_DOT":0.0005677,"MEAN_MOTION_DDOT":0},{"OBJECT_NAME":"STARLINK-34695","OBJECT_ID":"2025-157N","EPOCH":"2025-12-30T05:13:29.098560","MEAN_MOTION":15.39607037,"ECCENTRICITY":0.00011976,"INCLINATION":53.1595,"RA_OF_ASC_NODE":310.7487,"ARG_OF_PERICENTER":51.6259,"MEAN_ANOMALY":308.4854,"EPHEMERIS_TYPE":0,"CLASSIFICATION_TYPE":"U","NORAD_CAT_ID":64916,"ELEMENT_SET_NO":999,"REV_AT_EPOCH":2545,"BSTAR":0.0015701907,"MEAN_MOTION_DOT":0.000629,"MEAN_MOTION_DDOT":0},{"OBJECT_NAME":"STARLINK-34653","OBJECT_ID":"2025-157P","EPOCH":"2025-12-30T06:33:35.070912","MEAN_MOTION":15.39614784,"ECCENTRICITY":0.00010757,"INCLINATION":53.1597,"RA_OF_ASC_NODE":310.3853,"ARG_OF_PERICENTER":99.8567,"MEAN_ANOMALY":260.2559,"EPHEMERIS_TYPE":0,"CLASSIFICATION_TYPE":"U","NORAD_CAT_ID":64917,"ELEMENT_SET_NO":999,"REV_AT_EPOCH":2541,"BSTAR":0.0016717817,"MEAN_MOTION_DOT":0.00067049,"MEAN_MOTION_DDOT":0},{"OBJECT_NAME":"STARLINK-34611","OBJECT_ID":"2025-157Q","EPOCH":"2025-12-30T03:07:11.608608","MEAN_MOTION":15.32500444,"ECCENTRICITY":0.00382089,"INCLINATION":53.1603,"RA_OF_ASC_NODE":311.6285,"ARG_OF_PERICENTER":46.336,"MEAN_ANOMALY":314.0798,"EPHEMERIS_TYPE":0,"CLASSIFICATION_TYPE":"U","NORAD_CAT_ID":64918,"ELEMENT_SET_NO":999,"REV_AT_EPOCH":2543,"BSTAR":-0.0026292201,"MEAN_MOTION_DOT":-0.00085146,"MEAN_MOTION_DDOT":0},{"OBJECT_NAME":"STARLINK-34599","OBJECT_ID":"2025-157R","EPOCH":"2025-12-30T03:33:47.960064","MEAN_MOTION":15.39596744,"ECCENTRICITY":0.00013217,"INCLINATION":53.1609,"RA_OF_ASC_NODE":311.0166,"ARG_OF_PERICENTER":90.0126,"MEAN_ANOMALY":270.103,"EPHEMERIS_TYPE":0,"CLASSIFICATION_TYPE":"U","NORAD_CAT_ID":64919,"ELEMENT_SET_NO":999,"REV_AT_EPOCH":2544,"BSTAR":0.0018456537,"MEAN_MOTION_DOT":0.00074089,"MEAN_MOTION_DDOT":0},{"OBJECT_NAME":"STARLINK-34069","OBJECT_ID":"2025-157S","EPOCH":"2025-12-30T07:41:00.504672","MEAN_MOTION":15.37456659,"ECCENTRICITY":0.00063541,"INCLINATION":53.16,"RA_OF_ASC_NODE":310.6798,"ARG_OF_PERICENTER":127.6233,"MEAN_ANOMALY":232.5348,"EPHEMERIS_TYPE":0,"CLASSIFICATION_TYPE":"U","NORAD_CAT_ID":64920,"ELEMENT_SET_NO":999,"REV_AT_EPOCH":2546,"BSTAR":-0.026039444,"MEAN_MOTION_DOT":-0.00893842,"MEAN_MOTION_DDOT":0},{"OBJECT_NAME":"STARLINK-34699","OBJECT_ID":"2025-157T","EPOCH":"2025-12-30T06:00:46.452096","MEAN_MOTION":15.39613703,"ECCENTRICITY":9.96e-5,"INCLINATION":53.1614,"RA_OF_ASC_NODE":310.9574,"ARG_OF_PERICENTER":109.4309,"MEAN_ANOMALY":250.6804,"EPHEMERIS_TYPE":0,"CLASSIFICATION_TYPE":"U","NORAD_CAT_ID":64921,"ELEMENT_SET_NO":999,"REV_AT_EPOCH":2545,"BSTAR":0.0020095114,"MEAN_MOTION_DOT":0.00080818,"MEAN_MOTION_DDOT":0},{"OBJECT_NAME":"STARLINK-34700","OBJECT_ID":"2025-157U","EPOCH":"2025-12-30T01:06:11.310336","MEAN_MOTION":15.4376487,"ECCENTRICITY":0.00369099,"INCLINATION":53.1605,"RA_OF_ASC_NODE":311.8123,"ARG_OF_PERICENTER":299.5175,"MEAN_ANOMALY":60.2153,"EPHEMERIS_TYPE":0,"CLASSIFICATION_TYPE":"U","NORAD_CAT_ID":64922,"ELEMENT_SET_NO":999,"REV_AT_EPOCH":2537,"BSTAR":0.088834214,"MEAN_MOTION_DOT":0.04791096,"MEAN_MOTION_DDOT":0},{"OBJECT_NAME":"STARLINK-34643","OBJECT_ID":"2025-157V","EPOCH":"2025-12-30T02:26:34.720800","MEAN_MOTION":15.4715602,"ECCENTRICITY":0.00343821,"INCLINATION":53.1606,"RA_OF_ASC_NODE":311.4457,"ARG_OF_PERICENTER":253.3204,"MEAN_ANOMALY":106.4029,"EPHEMERIS_TYPE":0,"CLASSIFICATION_TYPE":"U","NORAD_CAT_ID":64923,"ELEMENT_SET_NO":999,"REV_AT_EPOCH":2543,"BSTAR":0.016067258,"MEAN_MOTION_DOT":0.00918901,"MEAN_MOTION_DDOT":0},{"OBJECT_NAME":"STARLINK-34199","OBJECT_ID":"2025-157W","EPOCH":"2025-12-30T05:40:42.585600","MEAN_MOTION":15.39595797,"ECCENTRICITY":0.0001225,"INCLINATION":53.16,"RA_OF_ASC_NODE":310.8665,"ARG_OF_PERICENTER":119.3767,"MEAN_ANOMALY":240.7361,"EPHEMERIS_TYPE":0,"CLASSIFICATION_TYPE":"U","NORAD_CAT_ID":64924,"ELEMENT_SET_NO":999,"REV_AT_EPOCH":2540,"BSTAR":0.0015788924,"MEAN_MOTION_DOT":0.0006323,"MEAN_MOTION_DDOT":0},{"OBJECT_NAME":"STARLINK-34579","OBJECT_ID":"2025-157X","EPOCH":"2025-12-30T05:54:22.662432","MEAN_MOTION":15.3652596,"ECCENTRICITY":0.00297978,"INCLINATION":53.161,"RA_OF_ASC_NODE":310.9261,"ARG_OF_PERICENTER":186.6808,"MEAN_ANOMALY":173.3803,"EPHEMERIS_TYPE":0,"CLASSIFICATION_TYPE":"U","NORAD_CAT_ID":64925,"ELEMENT_SET_NO":999,"REV_AT_EPOCH":2545,"BSTAR":-0.15484172,"MEAN_MOTION_DOT":-0.04922239,"MEAN_MOTION_DDOT":0},{"OBJECT_NAME":"STARLINK-34543","OBJECT_ID":"2025-157Y","EPOCH":"2025-12-30T03:27:06.225984","MEAN_MOTION":15.39564693,"ECCENTRICITY":0.00010027,"INCLINATION":53.1589,"RA_OF_ASC_NODE":310.997,"ARG_OF_PERICENTER":53.4349,"MEAN_ANOMALY":306.6748,"EPHEMERIS_TYPE":0,"CLASSIFICATION_TYPE":"U","NORAD_CAT_ID":64926,"ELEMENT_SET_NO":999,"REV_AT_EPOCH":2539,"BSTAR":0.0019819788,"MEAN_MOTION_DOT":0.00079564,"MEAN_MOTION_DDOT":0},{"OBJECT_NAME":"STARLINK-34661","OBJECT_ID":"2025-157Z","EPOCH":"2025-12-30T06:27:22.745664","MEAN_MOTION":15.39626207,"ECCENTRICITY":0.00010031,"INCLINATION":53.1597,"RA_OF_ASC_NODE":310.3507,"ARG_OF_PERICENTER":96.3622,"MEAN_ANOMALY":263.7497,"EPHEMERIS_TYPE":0,"CLASSIFICATION_TYPE":"U","NORAD_CAT_ID":64927,"ELEMENT_SET_NO":999,"REV_AT_EPOCH":2518,"BSTAR":0.0023015024,"MEAN_MOTION_DOT":0.00092805,"MEAN_MOTION_DDOT":0},{"OBJECT_NAME":"STARLINK-34248","OBJECT_ID":"2025-157AA","EPOCH":"2025-12-30T07:00:48.478464","MEAN_MOTION":15.39652791,"ECCENTRICITY":0.00013113,"INCLINATION":53.1601,"RA_OF_ASC_NODE":310.5024,"ARG_OF_PERICENTER":69.7889,"MEAN_ANOMALY":290.3257,"EPHEMERIS_TYPE":0,"CLASSIFICATION_TYPE":"U","NORAD_CAT_ID":64928,"ELEMENT_SET_NO":999,"REV_AT_EPOCH":2546,"BSTAR":0.0012489452,"MEAN_MOTION_DOT":0.00049939,"MEAN_MOTION_DDOT":0},{"OBJECT_NAME":"STARLINK-34290","OBJECT_ID":"2025-157AB","EPOCH":"2025-12-30T03:47:10.503744","MEAN_MOTION":15.39614504,"ECCENTRICITY":0.00010003,"INCLINATION":53.1597,"RA_OF_ASC_NODE":311.0837,"ARG_OF_PERICENTER":97.1305,"MEAN_ANOMALY":262.9813,"EPHEMERIS_TYPE":0,"CLASSIFICATION_TYPE":"U","NORAD_CAT_ID":64929,"ELEMENT_SET_NO":999,"REV_AT_EPOCH":2544,"BSTAR":0.0010023722,"MEAN_MOTION_DOT":0.00039897,"MEAN_MOTION_DDOT":0},{"OBJECT_NAME":"STARLINK-34220","OBJECT_ID":"2025-157AC","EPOCH":"2025-12-30T06:20:41.529984","MEAN_MOTION":15.39609791,"ECCENTRICITY":9.763e-5,"INCLINATION":53.16,"RA_OF_ASC_NODE":310.3195,"ARG_OF_PERICENTER":82.2378,"MEAN_ANOMALY":277.8737,"EPHEMERIS_TYPE":0,"CLASSIFICATION_TYPE":"U","NORAD_CAT_ID":64930,"ELEMENT_SET_NO":999,"REV_AT_EPOCH":2535,"BSTAR":0.0013490095,"MEAN_MOTION_DOT":0.00053924,"MEAN_MOTION_DDOT":0},{"OBJECT_NAME":"STARLINK-34715","OBJECT_ID":"2025-157AD","EPOCH":"2025-12-30T08:00:01.999872","MEAN_MOTION":15.39543566,"ECCENTRICITY":0.00012837,"INCLINATION":53.1588,"RA_OF_ASC_NODE":310.2072,"ARG_OF_PERICENTER":69.0336,"MEAN_ANOMALY":210.6933,"EPHEMERIS_TYPE":0,"CLASSIFICATION_TYPE":"U","NORAD_CAT_ID":64931,"ELEMENT_SET_NO":999,"REV_AT_EPOCH":590,"BSTAR":0.0022411541,"MEAN_MOTION_DOT":0.00090083,"MEAN_MOTION_DDOT":0},{"OBJECT_NAME":"STARLINK-34705","OBJECT_ID":"2025-158A","EPOCH":"2025-12-30T04:19:56.959968","MEAN_MOTION":15.05651839,"ECCENTRICITY":0.00029644,"INCLINATION":97.5998,"RA_OF_ASC_NODE":225.5205,"ARG_OF_PERICENTER":64.5492,"MEAN_ANOMALY":295.6041,"EPHEMERIS_TYPE":0,"CLASSIFICATION_TYPE":"U","NORAD_CAT_ID":64932,"ELEMENT_SET_NO":999,"REV_AT_EPOCH":2489,"BSTAR":0.00040746978,"MEAN_MOTION_DOT":5.824e-5,"MEAN_MOTION_DDOT":0}]
